[{"OBJECT_NAME":"XINGYUN-2 02","OBJECT_ID":"2020-028B","EPOCH":"2026-03-10T00:08:18.521088","MEAN_MOTION":15.11086378,"ECCENTRICITY":0.0009258,"INCLINATION":97.5114,"RA_OF_ASC_NODE":76.7595,"ARG_OF_PERICENTER":249.9829,"MEAN_ANOMALY":110.0404,"EPHEMERIS_TYPE":0,"CLASSIFICATION_TYPE":"U","NORAD_CAT_ID":45603,"ELEMENT_SET_NO":999,"REV_AT_EPOCH":31985,"BSTAR":0.00013296102,"MEAN_MOTION_DOT":2.163e-5,"MEAN_MOTION_DDOT":0},{"OBJECT_NAME":"STARLINK-3969","OBJECT_ID":"2022-051U","EPOCH":"2026-03-09T12:58:45.806016","MEAN_MOTION":15.08827185,"ECCENTRICITY":0.00010558,"INCLINATION":53.2167,"RA_OF_ASC_NODE":129.79,"ARG_OF_PERICENTER":99.3768,"MEAN_ANOMALY":260.7343,"EPHEMERIS_TYPE":0,"CLASSIFICATION_TYPE":"U","NORAD_CAT_ID":52551,"ELEMENT_SET_NO":999,"REV_AT_EPOCH":21142,"BSTAR":0.00013659308,"MEAN_MOTION_DOT":1.886e-5,"MEAN_MOTION_DDOT":0}]
